[
  {
    "OBJECT_NAME": "NOAA 1",
    "OBJECT_ID": "1970-106A",
    "EPOCH": "2025-05-17T20:40:27.255648",
    "MEAN_MOTION": 12.54042916,
    "ECCENTRICITY": 0.0031786,
    "INCLINATION": 101.3911,
    "RA_OF_ASC_NODE": 183.8248,
    "ARG_OF_PERICENTER": 42.9012,
    "MEAN_ANOMALY": 130.0946,
    "EPHEMERIS_TYPE": 0,
    "CLASSIFICATION_TYPE": "U",
    "NORAD_CAT_ID": 4793,
    "ELEMENT_SET_NO": 999,
    "REV_AT_EPOCH": 49162,
    "BSTAR": 3.6469e-05,
    "MEAN_MOTION_DOT": -3.7e-07,
    "MEAN_MOTION_DDOT": 0
  },
  {
    "OBJECT_NAME": "NOAA 2 (ITOS-D)",
    "OBJECT_ID": "1972-082A",
    "EPOCH": "2025-05-17T20:02:44.767104",
    "MEAN_MOTION": 12.5320022,
    "ECCENTRICITY": 0.0003937,
    "INCLINATION": 102.0216,
    "RA_OF_ASC_NODE": 146.789,
    "ARG_OF_PERICENTER": 197.762,
    "MEAN_ANOMALY": 337.0827,
    "EPHEMERIS_TYPE": 0,
    "CLASSIFICATION_TYPE": "U",
    "NORAD_CAT_ID": 6235,
    "ELEMENT_SET_NO": 999,
    "REV_AT_EPOCH": 40565,
    "BSTAR": 9.7744e-05,
    "MEAN_MOTION_DOT": -3.1e-07,
    "MEAN_MOTION_DDOT": 0
  },
  {
    "OBJECT_NAME": "NOAA 3",
    "OBJECT_ID": "1973-086A",
    "EPOCH": "2025-05-17T12:35:56.789376",
    "MEAN_MOTION": 12.40382091,
    "ECCENTRICITY": 0.00068,
    "INCLINATION": 102.289,
    "RA_OF_ASC_NODE": 142.6171,
    "ARG_OF_PERICENTER": 129.3345,
    "MEAN_ANOMALY": 345.0221,
    "EPHEMERIS_TYPE": 0,
    "CLASSIFICATION_TYPE": "U",
    "NORAD_CAT_ID": 6920,
    "ELEMENT_SET_NO": 999,
    "REV_AT_EPOCH": 33284,
    "BSTAR": 3.1091e-05,
    "MEAN_MOTION_DOT": -4.2e-07,
    "MEAN_MOTION_DDOT": 0
  },
  {
    "OBJECT_NAME": "NOAA 4",
    "OBJECT_ID": "1974-089A",
    "EPOCH": "2025-05-17T11:44:25.817280",
    "MEAN_MOTION": 12.53194564,
    "ECCENTRICITY": 0.0008649,
    "INCLINATION": 102.0034,
    "RA_OF_ASC_NODE": 141.0729,
    "ARG_OF_PERICENTER": 229.4789,
    "MEAN_ANOMALY": 285.7442,
    "EPHEMERIS_TYPE": 0,
    "CLASSIFICATION_TYPE": "U",
    "NORAD_CAT_ID": 7529,
    "ELEMENT_SET_NO": 999,
    "REV_AT_EPOCH": 30995,
    "BSTAR": 5.5849e-06,
    "MEAN_MOTION_DOT": -4.6e-07,
    "MEAN_MOTION_DDOT": 0
  },
  {
    "OBJECT_NAME": "NOAA 5",
    "OBJECT_ID": "1976-077A",
    "EPOCH": "2025-05-17T11:38:53.199744",
    "MEAN_MOTION": 12.37817753,
    "ECCENTRICITY": 0.0009749,
    "INCLINATION": 102.2569,
    "RA_OF_ASC_NODE": 116.9508,
    "ARG_OF_PERICENTER": 346.5594,
    "MEAN_ANOMALY": 130.8273,
    "EPHEMERIS_TYPE": 0,
    "CLASSIFICATION_TYPE": "U",
    "NORAD_CAT_ID": 9057,
    "ELEMENT_SET_NO": 999,
    "REV_AT_EPOCH": 20551,
    "BSTAR": 0.00018468,
    "MEAN_MOTION_DOT": -2.2e-07,
    "MEAN_MOTION_DDOT": 0
  },
  {
    "OBJECT_NAME": "TIROS N",
    "OBJECT_ID": "1978-096A",
    "EPOCH": "2025-05-17T12:03:27.847296",
    "MEAN_MOTION": 14.19183632,
    "ECCENTRICITY": 0.000943,
    "INCLINATION": 98.4888,
    "RA_OF_ASC_NODE": 170.7467,
    "ARG_OF_PERICENTER": 313.6756,
    "MEAN_ANOMALY": 46.3639,
    "EPHEMERIS_TYPE": 0,
    "CLASSIFICATION_TYPE": "U",
    "NORAD_CAT_ID": 11060,
    "ELEMENT_SET_NO": 999,
    "REV_AT_EPOCH": 62262,
    "BSTAR": 0.00011898,
    "MEAN_MOTION_DOT": 2.07e-06,
    "MEAN_MOTION_DDOT": 0
  },
  {
    "OBJECT_NAME": "NOAA 6",
    "OBJECT_ID": "1979-057A",
    "EPOCH": "2025-05-17T11:35:49.772544",
    "MEAN_MOTION": 14.35161147,
    "ECCENTRICITY": 0.0009768,
    "INCLINATION": 98.6005,
    "RA_OF_ASC_NODE": 164.0034,
    "ARG_OF_PERICENTER": 358.6083,
    "MEAN_ANOMALY": 1.5073,
    "EPHEMERIS_TYPE": 0,
    "CLASSIFICATION_TYPE": "U",
    "NORAD_CAT_ID": 11416,
    "ELEMENT_SET_NO": 999,
    "REV_AT_EPOCH": 39419,
    "BSTAR": 0.00016932,
    "MEAN_MOTION_DOT": 4.4e-06,
    "MEAN_MOTION_DDOT": 0
  },
  {
    "OBJECT_NAME": "NOAA 7",
    "OBJECT_ID": "1981-059A",
    "EPOCH": "2025-05-17T21:11:44.799360",
    "MEAN_MOTION": 14.177023,
    "ECCENTRICITY": 0.0010696,
    "INCLINATION": 98.8445,
    "RA_OF_ASC_NODE": 202.71,
    "ARG_OF_PERICENTER": 323.2788,
    "MEAN_ANOMALY": 36.7653,
    "EPHEMERIS_TYPE": 0,
    "CLASSIFICATION_TYPE": "U",
    "NORAD_CAT_ID": 12553,
    "ELEMENT_SET_NO": 999,
    "REV_AT_EPOCH": 26895,
    "BSTAR": 5.8165e-05,
    "MEAN_MOTION_DOT": 7.4e-07,
    "MEAN_MOTION_DDOT": 0
  },
  {
    "OBJECT_NAME": "NOAA 8",
    "OBJECT_ID": "1983-022A",
    "EPOCH": "2025-05-17T17:28:05.028672",
    "MEAN_MOTION": 14.29624459,
    "ECCENTRICITY": 0.0014372,
    "INCLINATION": 98.7372,
    "RA_OF_ASC_NODE": 144.5667,
    "ARG_OF_PERICENTER": 339.7683,
    "MEAN_ANOMALY": 20.2927,
    "EPHEMERIS_TYPE": 0,
    "CLASSIFICATION_TYPE": "U",
    "NORAD_CAT_ID": 13923,
    "ELEMENT_SET_NO": 999,
    "REV_AT_EPOCH": 19482,
    "BSTAR": 9.2439e-05,
    "MEAN_MOTION_DOT": 1.92e-06,
    "MEAN_MOTION_DDOT": 0
  },
  {
    "OBJECT_NAME": "NOAA 9",
    "OBJECT_ID": "1984-123A",
    "EPOCH": "2025-05-17T12:26:50.500320",
    "MEAN_MOTION": 14.16917533,
    "ECCENTRICITY": 0.0015237,
    "INCLINATION": 99.1224,
    "RA_OF_ASC_NODE": 149.4,
    "ARG_OF_PERICENTER": 34.0528,
    "MEAN_ANOMALY": 128.5057,
    "EPHEMERIS_TYPE": 0,
    "CLASSIFICATION_TYPE": "U",
    "NORAD_CAT_ID": 15427,
    "ELEMENT_SET_NO": 999,
    "REV_AT_EPOCH": 8738,
    "BSTAR": 0.0001089,
    "MEAN_MOTION_DOT": 1.72e-06,
    "MEAN_MOTION_DDOT": 0
  },
  {
    "OBJECT_NAME": "NOAA 10",
    "OBJECT_ID": "1986-073A",
    "EPOCH": "2025-05-17T12:39:44.462880",
    "MEAN_MOTION": 14.28998642,
    "ECCENTRICITY": 0.0013257,
    "INCLINATION": 98.6739,
    "RA_OF_ASC_NODE": 127.0271,
    "ARG_OF_PERICENTER": 75.0476,
    "MEAN_ANOMALY": 37.3359,
    "EPHEMERIS_TYPE": 0,
    "CLASSIFICATION_TYPE": "U",
    "NORAD_CAT_ID": 16969,
    "ELEMENT_SET_NO": 999,
    "REV_AT_EPOCH": 1290,
    "BSTAR": 9.6124e-05,
    "MEAN_MOTION_DOT": 1.99e-06,
    "MEAN_MOTION_DDOT": 0
  },
  {
    "OBJECT_NAME": "NOAA 11",
    "OBJECT_ID": "1988-089A",
    "EPOCH": "2025-05-17T14:22:13.563840",
    "MEAN_MOTION": 14.15741926,
    "ECCENTRICITY": 0.0011075,
    "INCLINATION": 98.5696,
    "RA_OF_ASC_NODE": 92.3535,
    "ARG_OF_PERICENTER": 359.993,
    "MEAN_ANOMALY": 0.1243,
    "EPHEMERIS_TYPE": 0,
    "CLASSIFICATION_TYPE": "U",
    "NORAD_CAT_ID": 19531,
    "ELEMENT_SET_NO": 999,
    "REV_AT_EPOCH": 89150,
    "BSTAR": 7.1061e-05,
    "MEAN_MOTION_DOT": 9.8e-07,
    "MEAN_MOTION_DDOT": 0
  },
  {
    "OBJECT_NAME": "NOAA 12",
    "OBJECT_ID": "1991-032A",
    "EPOCH": "2025-05-17T20:36:25.285536",
    "MEAN_MOTION": 14.26603811,
    "ECCENTRICITY": 0.0014825,
    "INCLINATION": 98.5869,
    "RA_OF_ASC_NODE": 128.0219,
    "ARG_OF_PERICENTER": 102.4146,
    "MEAN_ANOMALY": 257.8695,
    "EPHEMERIS_TYPE": 0,
    "CLASSIFICATION_TYPE": "U",
    "NORAD_CAT_ID": 21263,
    "ELEMENT_SET_NO": 999,
    "REV_AT_EPOCH": 76885,
    "BSTAR": 6.997e-05,
    "MEAN_MOTION_DOT": 1.26e-06,
    "MEAN_MOTION_DDOT": 0
  },
  {
    "OBJECT_NAME": "NOAA 13",
    "OBJECT_ID": "1993-050A",
    "EPOCH": "2025-05-17T11:54:40.216320",
    "MEAN_MOTION": 14.13521224,
    "ECCENTRICITY": 0.0009465,
    "INCLINATION": 98.6552,
    "RA_OF_ASC_NODE": 89.2154,
    "ARG_OF_PERICENTER": 171.8451,
    "MEAN_ANOMALY": 188.2877,
    "EPHEMERIS_TYPE": 0,
    "CLASSIFICATION_TYPE": "U",
    "NORAD_CAT_ID": 22739,
    "ELEMENT_SET_NO": 999,
    "REV_AT_EPOCH": 63747,
    "BSTAR": 0.0001028,
    "MEAN_MOTION_DOT": 1.51e-06,
    "MEAN_MOTION_DDOT": 0
  },
  {
    "OBJECT_NAME": "NOAA 14",
    "OBJECT_ID": "1994-089A",
    "EPOCH": "2025-05-17T12:47:56.801184",
    "MEAN_MOTION": 14.14581132,
    "ECCENTRICITY": 0.0010265,
    "INCLINATION": 98.4631,
    "RA_OF_ASC_NODE": 121.5434,
    "ARG_OF_PERICENTER": 135.5138,
    "MEAN_ANOMALY": 224.6862,
    "EPHEMERIS_TYPE": 0,
    "CLASSIFICATION_TYPE": "U",
    "NORAD_CAT_ID": 23455,
    "ELEMENT_SET_NO": 999,
    "REV_AT_EPOCH": 56726,
    "BSTAR": 5.7276e-05,
    "MEAN_MOTION_DOT": 6.9e-07,
    "MEAN_MOTION_DDOT": 0
  },
  {
    "OBJECT_NAME": "NOAA 15",
    "OBJECT_ID": "1998-030A",
    "EPOCH": "2025-05-17T19:30:14.364864",
    "MEAN_MOTION": 14.26966762,
    "ECCENTRICITY": 0.0011398,
    "INCLINATION": 98.5365,
    "RA_OF_ASC_NODE": 163.4904,
    "ARG_OF_PERICENTER": 69.3411,
    "MEAN_ANOMALY": 290.8991,
    "EPHEMERIS_TYPE": 0,
    "CLASSIFICATION_TYPE": "U",
    "NORAD_CAT_ID": 25338,
    "ELEMENT_SET_NO": 999,
    "REV_AT_EPOCH": 40515,
    "BSTAR": 0.00013982,
    "MEAN_MOTION_DOT": 2.97e-06,
    "MEAN_MOTION_DDOT": 0
  },
  {
    "OBJECT_NAME": "NOAA 16",
    "OBJECT_ID": "2000-055A",
    "EPOCH": "2025-05-17T12:01:05.178432",
    "MEAN_MOTION": 14.13802091,
    "ECCENTRICITY": 0.0010399,
    "INCLINATION": 98.4899,
    "RA_OF_ASC_NODE": 167.1384,
    "ARG_OF_PERICENTER": 4.3929,
    "MEAN_ANOMALY": 355.7334,
    "EPHEMERIS_TYPE": 0,
    "CLASSIFICATION_TYPE": "U",
    "NORAD_CAT_ID": 26536,
    "ELEMENT_SET_NO": 999,
    "REV_AT_EPOCH": 56781,
    "BSTAR": 7.0749e-05,
    "MEAN_MOTION_DOT": 9.3e-07,
    "MEAN_MOTION_DDOT": 0
  },
  {
    "OBJECT_NAME": "NOAA 17",
    "OBJECT_ID": "2002-032A",
    "EPOCH": "2025-05-17T20:59:34.224288",
    "MEAN_MOTION": 14.26006269,
    "ECCENTRICITY": 0.001268,
    "INCLINATION": 98.8113,
    "RA_OF_ASC_NODE": 95.2231,
    "ARG_OF_PERICENTER": 60.1782,
    "MEAN_ANOMALY": 300.0656,
    "EPHEMERIS_TYPE": 0,
    "CLASSIFICATION_TYPE": "U",
    "NORAD_CAT_ID": 27453,
    "ELEMENT_SET_NO": 999,
    "REV_AT_EPOCH": 19065,
    "BSTAR": 0.00012378,
    "MEAN_MOTION_DOT": 2.51e-06,
    "MEAN_MOTION_DDOT": 0
  },
  {
    "OBJECT_NAME": "NOAA 18",
    "OBJECT_ID": "2005-018A",
    "EPOCH": "2025-05-17T19:56:13.257600",
    "MEAN_MOTION": 14.13599194,
    "ECCENTRICITY": 0.0014138,
    "INCLINATION": 98.842,
    "RA_OF_ASC_NODE": 217.5623,
    "ARG_OF_PERICENTER": 189.5428,
    "MEAN_ANOMALY": 170.5477,
    "EPHEMERIS_TYPE": 0,
    "CLASSIFICATION_TYPE": "U",
    "NORAD_CAT_ID": 28654,
    "ELEMENT_SET_NO": 999,
    "REV_AT_EPOCH": 3053,
    "BSTAR": 0.00017006,
    "MEAN_MOTION_DOT": 2.77e-06,
    "MEAN_MOTION_DDOT": 0
  },
  {
    "OBJECT_NAME": "NOAA 19",
    "OBJECT_ID": "2009-005A",
    "EPOCH": "2025-05-17T20:00:12.990816",
    "MEAN_MOTION": 14.13363099,
    "ECCENTRICITY": 0.0014737,
    "INCLINATION": 98.9981,
    "RA_OF_ASC_NODE": 202.4089,
    "ARG_OF_PERICENTER": 70.5027,
    "MEAN_ANOMALY": 289.7736,
    "EPHEMERIS_TYPE": 0,
    "CLASSIFICATION_TYPE": "U",
    "NORAD_CAT_ID": 33591,
    "ELEMENT_SET_NO": 999,
    "REV_AT_EPOCH": 83889,
    "BSTAR": 0.00015944,
    "MEAN_MOTION_DOT": 2.54e-06,
    "MEAN_MOTION_DDOT": 0
  },
  {
    "OBJECT_NAME": "SUOMI NPP",
    "OBJECT_ID": "2011-061A",
    "EPOCH": "2025-05-17T20:17:26.786688",
    "MEAN_MOTION": 14.19532527,
    "ECCENTRICITY": 0.0002159,
    "INCLINATION": 98.757,
    "RA_OF_ASC_NODE": 77.3649,
    "ARG_OF_PERICENTER": 48.8344,
    "MEAN_ANOMALY": 311.3018,
    "EPHEMERIS_TYPE": 0,
    "CLASSIFICATION_TYPE": "U",
    "NORAD_CAT_ID": 37849,
    "ELEMENT_SET_NO": 999,
    "REV_AT_EPOCH": 70234,
    "BSTAR": 8.3825e-05,
    "MEAN_MOTION_DOT": 1.33e-06,
    "MEAN_MOTION_DDOT": 0
  },
  {
    "OBJECT_NAME": "NOAA 20 (JPSS-1)",
    "OBJECT_ID": "2017-073A",
    "EPOCH": "2025-05-17T20:39:52.424352",
    "MEAN_MOTION": 14.19537729,
    "ECCENTRICITY": 0.0001604,
    "INCLINATION": 98.7408,
    "RA_OF_ASC_NODE": 76.7306,
    "ARG_OF_PERICENTER": 42.6134,
    "MEAN_ANOMALY": 317.5166,
    "EPHEMERIS_TYPE": 0,
    "CLASSIFICATION_TYPE": "U",
    "NORAD_CAT_ID": 43013,
    "ELEMENT_SET_NO": 999,
    "REV_AT_EPOCH": 38838,
    "BSTAR": 7.8783e-05,
    "MEAN_MOTION_DOT": 1.22e-06,
    "MEAN_MOTION_DDOT": 0
  },
  {
    "OBJECT_NAME": "NOAA 21 (JPSS-2)",
    "OBJECT_ID": "2022-150A",
    "EPOCH": "2025-05-17T13:04:37.712352",
    "MEAN_MOTION": 14.1953224,
    "ECCENTRICITY": 7.26e-05,
    "INCLINATION": 98.7264,
    "RA_OF_ASC_NODE": 76.7527,
    "ARG_OF_PERICENTER": 198.6749,
    "MEAN_ANOMALY": 161.44,
    "EPHEMERIS_TYPE": 0,
    "CLASSIFICATION_TYPE": "U",
    "NORAD_CAT_ID": 54234,
    "ELEMENT_SET_NO": 999,
    "REV_AT_EPOCH": 13041,
    "BSTAR": 7.071e-05,
    "MEAN_MOTION_DOT": 1.05e-06,
    "MEAN_MOTION_DDOT": 0
  }
]